[{"OBJECT_NAME":"ONEWEB-0422","OBJECT_ID":"2022-012E","EPOCH":"2026-03-09T21:40:11.055072","MEAN_MOTION":13.17649007,"ECCENTRICITY":0.0001872,"INCLINATION":87.9164,"RA_OF_ASC_NODE":25.5657,"ARG_OF_PERICENTER":101.7544,"MEAN_ANOMALY":258.3798,"EPHEMERIS_TYPE":0,"CLASSIFICATION_TYPE":"U","NORAD_CAT_ID":51626,"ELEMENT_SET_NO":999,"REV_AT_EPOCH":20073,"BSTAR":3.1383839e-5,"MEAN_MOTION_DOT":2.5e-7,"MEAN_MOTION_DDOT":0},{"OBJECT_NAME":"COSMOS 886 DEB","OBJECT_ID":"1976-126BR","EPOCH":"2026-03-09T04:48:27.211680","MEAN_MOTION":11.69535117,"ECCENTRICITY":0.08740662,"INCLINATION":65.8098,"RA_OF_ASC_NODE":72.6672,"ARG_OF_PERICENTER":77.9574,"MEAN_ANOMALY":2.9251,"EPHEMERIS_TYPE":0,"CLASSIFICATION_TYPE":"U","NORAD_CAT_ID":14799,"ELEMENT_SET_NO":999,"REV_AT_EPOCH":80840,"BSTAR":0.00063332171,"MEAN_MOTION_DOT":5.0e-7,"MEAN_MOTION_DDOT":0}]
